{"type": "FeatureCollection", "features": [ {"type": "Feature", "properties": {"norad_id": 66052, "name": "HRC MONOBLOCK CAMERA", "group": "stations", "lat": -35.20191518658137, "lon": 0.21869797462884133, "alt_km": 407.36680702176545, "timestamp": "2025-12-11T18:59:44.831658+00:00", "meta": {"OBJECT_NAME": "HRC MONOBLOCK CAMERA", "OBJECT_ID": "1998-067XR", "EPOCH": "2025-12-11T04:07:53.480928", "MEAN_MOTION": 15.53961179, "ECCENTRICITY": 0.00035327, "INCLINATION": 51.6288, "RA_OF_ASC_NODE": 149.3227, "ARG_OF_PERICENTER": 176.6815, "MEAN_ANOMALY": 183.4199, "EPHEMERIS_TYPE": 0, "CLASSIFICATION_TYPE": "U", "NORAD_CAT_ID": 66052, "ELEMENT_SET_NO": 999, "REV_AT_EPOCH": 859, "BSTAR": 0.00078110434, "MEAN_MOTION_DOT": 0.00051254, "MEAN_MOTION_DDOT": 0}, "tle": {"line1": "1 66052U 98067XR  25345.17214677  .00051254  00000+0  78110-3 0  9999", "line2": "2 66052  51.6288 149.3227 0003532 176.6815 183.4199 15.53961179  8590"}}, "geometry": {"type": "Point", "coordinates": [0.21869797462884133, -35.20191518658137]}}, {"type": "Feature", "properties": {"norad_id": 66174, "name": "HTV-X1", "group": "stations", "lat": 33.10139576271921, "lon": -63.92494791275244, "alt_km": 414.2376067619807, "timestamp": "2025-12-11T18:59:44.831668+00:00", "meta": {"OBJECT_NAME": "HTV-X1", "OBJECT_ID": "2025-241A", "EPOCH": "2025-12-11T04:28:53.401152", "MEAN_MOTION": 15.49499993, "ECCENTRICITY": 0.00033343, "INCLINATION": 51.6309, "RA_OF_ASC_NODE": 150.1691, "ARG_OF_PERICENTER": 234.1557, "MEAN_ANOMALY": 125.9122, "EPHEMERIS_TYPE": 0, "CLASSIFICATION_TYPE": "U", "NORAD_CAT_ID": 66174, "ELEMENT_SET_NO": 999, "REV_AT_EPOCH": 51, "BSTAR": 0.00030173842, "MEAN_MOTION_DOT": 0.00016503, "MEAN_MOTION_DDOT": 0}, "tle": {"line1": "1 66174U 25241A   25345.18672918  .00016503  00000+0  30174-3 0  9991", "line2": "2 66174  51.6309 150.1691 0003334 234.1557 125.9122 15.49499993   513"}}, "geometry": {"type": "Point", "coordinates": [-63.92494791275244, 33.10139576271921]}}, {"type": "Feature", "properties": {"norad_id": 66515, "name": "SZ-21 MODULE", "group": "stations", "lat": 38.8580972248963, "lon": 136.0375478774199, "alt_km": 377.90212396399966, "timestamp": "2025-12-11T18:59:44.831679+00:00", "meta": {"OBJECT_NAME": "SZ-21 MODULE", "OBJECT_ID": "2025-246C", "EPOCH": "2025-12-11T04:43:33.570048", "MEAN_MOTION": 15.623662, "ECCENTRICITY": 0.00062999, "INCLINATION": 41.4772, "RA_OF_ASC_NODE": 25.4567, "ARG_OF_PERICENTER": 251.943, "MEAN_ANOMALY": 108.0724, "EPHEMERIS_TYPE": 0, "CLASSIFICATION_TYPE": "U", "NORAD_CAT_ID": 66515, "ELEMENT_SET_NO": 999, "REV_AT_EPOCH": 420, "BSTAR": 0.00045629061, "MEAN_MOTION_DOT": 0.00041492, "MEAN_MOTION_DDOT": 0}, "tle": {"line1": "1 66515U 25246C   25345.19691632  .00041492  00000+0  45629-3 0  9996", "line2": "2 66515  41.4772  25.4567 0006299 251.9430 108.0724 15.62366200  4208"}}, "geometry": {"type": "Point", "coordinates": [136.0375478774199, 38.8580972248963]}}, {"type": "Feature", "properties": {"norad_id": 66645, "name": "SHENZHOU-22", "group": "stations", "lat": -20.36003690837951, "lon": -132.68822725809676, "alt_km": 397.7416062804159, "timestamp": "2025-12-11T18:59:44.831689+00:00", "meta": {"OBJECT_NAME": "SHENZHOU-22", "OBJECT_ID": "2025-272A", "EPOCH": "2025-12-11T05:47:37.417056", "MEAN_MOTION": 15.59084729, "ECCENTRICITY": 0.00086412, "INCLINATION": 41.4683, "RA_OF_ASC_NODE": 25.8033, "ARG_OF_PERICENTER": 18.034, "MEAN_ANOMALY": 342.0803, "EPHEMERIS_TYPE": 0, "CLASSIFICATION_TYPE": "U", "NORAD_CAT_ID": 66645, "ELEMENT_SET_NO": 999, "REV_AT_EPOCH": 26357, "BSTAR": 0.00049057627, "MEAN_MOTION_DOT": 0.00039326, "MEAN_MOTION_DDOT": 0}, "tle": {"line1": "1 66645U 25272A   25345.24140529  .00039326  00000+0  49058-3 0  9992", "line2": "2 66645  41.4683  25.8033 0008641  18.0340 342.0803 15.59084729263574"}}, "geometry": {"type": "Point", "coordinates": [-132.68822725809676, -20.36003690837951]}}, {"type": "Feature", "properties": {"norad_id": 66664, "name": "SOYUZ-MS 28", "group": "stations", "lat": 33.1013943736517, "lon": -63.92494608311003, "alt_km": 414.2376069053116, "timestamp": "2025-12-11T18:59:44.831700+00:00", "meta": {"OBJECT_NAME": "SOYUZ-MS 28", "OBJECT_ID": "2025-275A", "EPOCH": "2025-12-11T04:28:53.401152", "MEAN_MOTION": 15.49499993, "ECCENTRICITY": 0.00033343, "INCLINATION": 51.6309, "RA_OF_ASC_NODE": 150.1691, "ARG_OF_PERICENTER": 234.1557, "MEAN_ANOMALY": 125.9122, "EPHEMERIS_TYPE": 0, "CLASSIFICATION_TYPE": "U", "NORAD_CAT_ID": 66664, "ELEMENT_SET_NO": 999, "REV_AT_EPOCH": 128, "BSTAR": 0.00030173842, "MEAN_MOTION_DOT": 0.00016503, "MEAN_MOTION_DDOT": 0}, "tle": {"line1": "1 66664U 25275A   25345.18672918  .00016503  00000+0  30174-3 0  9992", "line2": "2 66664  51.6309 150.1691 0003334 234.1557 125.9122 15.49499993  1282"}}, "geometry": {"type": "Point", "coordinates": [-63.92494608311003, 33.1013943736517]}}, {"type": "Feature", "properties": {"norad_id": 66906, "name": "1998-067XS", "group": "stations", "lat": 14.046339092934792, "lon": -44.313806297993374, "alt_km": 411.9732421630615, "timestamp": "2025-12-11T18:59:44.831710+00:00", "meta": {"OBJECT_NAME": "1998-067XS", "OBJECT_ID": "1998-067XS", "EPOCH": "2025-12-11T04:22:42.253536", "MEAN_MOTION": 15.50439588, "ECCENTRICITY": 0.00037466, "INCLINATION": 51.6302, "RA_OF_ASC_NODE": 150.1407, "ARG_OF_PERICENTER": 195.2111, "MEAN_ANOMALY": 164.8766, "EPHEMERIS_TYPE": 0, "CLASSIFICATION_TYPE": "U", "NORAD_CAT_ID": 66906, "ELEMENT_SET_NO": 999, "REV_AT_EPOCH": 137, "BSTAR": 0.00067409178, "MEAN_MOTION_DOT": 0.00038814, "MEAN_MOTION_DDOT": 0}, "tle": {"line1": "1 66906U 98067XS  25345.18243349  .00038814  00000+0  67409-3 0  9992", "line2": "2 66906  51.6302 150.1407 0003746 195.2111 164.8766 15.50439588  1371"}}, "geometry": {"type": "Point", "coordinates": [-44.313806297993374, 14.046339092934792]}}, {"type": "Feature", "properties": {"norad_id": 66907, "name": "1998-067XT", "group": "stations", "lat": 4.593166139885449, "lon": -36.55823950941296, "alt_km": 410.9502300452741, "timestamp": "2025-12-11T18:59:44.831721+00:00", "meta": {"OBJECT_NAME": "1998-067XT", "OBJECT_ID": "1998-067XT", "EPOCH": "2025-12-09T12:07:37.114752", "MEAN_MOTION": 15.50864429, "ECCENTRICITY": 0.00048036, "INCLINATION": 51.6307, "RA_OF_ASC_NODE": 158.4423, "ARG_OF_PERICENTER": 208.5081, "MEAN_ANOMALY": 151.5646, "EPHEMERIS_TYPE": 0, "CLASSIFICATION_TYPE": "U", "NORAD_CAT_ID": 66907, "ELEMENT_SET_NO": 999, "REV_AT_EPOCH": 111, "BSTAR": 0.0012921241, "MEAN_MOTION_DOT": 0.00076342, "MEAN_MOTION_DDOT": 0}, "tle": {"line1": "1 66907U 98067XT  25343.50529068  .00076342  00000+0  12921-2 0  9998", "line2": "2 66907  51.6307 158.4423 0004803 208.5081 151.5646 15.50864429  1113"}}, "geometry": {"type": "Point", "coordinates": [-36.55823950941296, 4.593166139885449]}}, {"type": "Feature", "properties": {"norad_id": 66908, "name": "1998-067XU", "group": "stations", "lat": 3.2437357593550313, "lon": -35.48416447088911, "alt_km": 410.7887165580469, "timestamp": "2025-12-11T18:59:44.831732+00:00", "meta": {"OBJECT_NAME": "1998-067XU", "OBJECT_ID": "1998-067XU", "EPOCH": "2025-12-10T15:57:23.331168", "MEAN_MOTION": 15.51115637, "ECCENTRICITY": 0.00048129, "INCLINATION": 51.6304, "RA_OF_ASC_NODE": 152.6848, "ARG_OF_PERICENTER": 213.5482, "MEAN_ANOMALY": 146.5203, "EPHEMERIS_TYPE": 0, "CLASSIFICATION_TYPE": "U", "NORAD_CAT_ID": 66908, "ELEMENT_SET_NO": 999, "REV_AT_EPOCH": 129, "BSTAR": 0.0014713865, "MEAN_MOTION_DOT": 0.00087912, "MEAN_MOTION_DDOT": 0}, "tle": {"line1": "1 66908U 98067XU  25344.66485337  .00087912  00000+0  14714-2 0  9994", "line2": "2 66908  51.6304 152.6848 0004812 213.5482 146.5203 15.51115637  1292"}}, "geometry": {"type": "Point", "coordinates": [-35.48416447088911, 3.2437357593550313]}}, {"type": "Feature", "properties": {"norad_id": 66909, "name": "SILVERSAT", "group": "stations", "lat": 1.9033794859796656, "lon": -34.42252807991904, "alt_km": 410.7615778809477, "timestamp": "2025-12-11T18:59:44.831742+00:00", "meta": {"OBJECT_NAME": "SILVERSAT", "OBJECT_ID": "1998-067XV", "EPOCH": "2025-12-10T17:29:49.371360", "MEAN_MOTION": 15.51224506, "ECCENTRICITY": 0.00046681, "INCLINATION": 51.6307, "RA_OF_ASC_NODE": 152.3636, "ARG_OF_PERICENTER": 216.2554, "MEAN_ANOMALY": 143.8119, "EPHEMERIS_TYPE": 0, "CLASSIFICATION_TYPE": "U", "NORAD_CAT_ID": 66909, "ELEMENT_SET_NO": 999, "REV_AT_EPOCH": 130, "BSTAR": 0.0015305983, "MEAN_MOTION_DOT": 0.00091869, "MEAN_MOTION_DDOT": 0}, "tle": {"line1": "1 66909U 98067XV  25344.72904365  .00091869  00000+0  15306-2 0  9993", "line2": "2 66909  51.6307 152.3636 0004668 216.2554 143.8119 15.51224506  1301"}}, "geometry": {"type": "Point", "coordinates": [-34.42252807991904, 1.9033794859796656]}}, {"type": "Feature", "properties": {"norad_id": 66910, "name": "1998-067XW", "group": "stations", "lat": -4.302205528402351, "lon": -29.512984033033987, "alt_km": 409.844608673774, "timestamp": "2025-12-11T18:59:44.831755+00:00", "meta": {"OBJECT_NAME": "1998-067XW", "OBJECT_ID": "1998-067XW", "EPOCH": "2025-12-10T11:16:54.563808", "MEAN_MOTION": 15.51350337, "ECCENTRICITY": 0.00055419, "INCLINATION": 51.6299, "RA_OF_ASC_NODE": 153.6351, "ARG_OF_PERICENTER": 197.1967, "MEAN_ANOMALY": 162.8836, "EPHEMERIS_TYPE": 0, "CLASSIFICATION_TYPE": "U", "NORAD_CAT_ID": 66910, "ELEMENT_SET_NO": 999, "REV_AT_EPOCH": 126, "BSTAR": 0.0013818348, "MEAN_MOTION_DOT": 0.00083191, "MEAN_MOTION_DDOT": 0}, "tle": {"line1": "1 66910U 98067XW  25344.47007597  .00083191  00000+0  13818-2 0  9993", "line2": "2 66910  51.6299 153.6351 0005541 197.1967 162.8836 15.51350337  1261"}}, "geometry": {"type": "Point", "coordinates": [-29.512984033033987, -4.302205528402351]}}]}